{"fetched_at":"2026-07-16T06:42:58.427Z","source":"https://celestrak.org/NORAD/elements/gp.php?NAME=HAWK&FORMAT=JSON","constellation":"hawkeye-360","records":[{"OBJECT_NAME":"HAWK-A","OBJECT_ID":"2018-099H","EPOCH":"2026-07-15T02:34:20.955936","CLASSIFICATION_TYPE":"U","MEAN_MOTION":15.24964443,"ECCENTRICITY":0.00347141,"INCLINATION":97.3897,"RA_OF_ASC_NODE":247.9822,"ARG_OF_PERICENTER":184.2471,"MEAN_ANOMALY":175.8478,"EPHEMERIS_TYPE":0,"NORAD_CAT_ID":43765,"ELEMENT_SET_NO":999,"REV_AT_EPOCH":41735,"BSTAR":0.00016247125,"MEAN_MOTION_DOT":0.00004044,"MEAN_MOTION_DDOT":0},{"OBJECT_NAME":"HAWK-B","OBJECT_ID":"2018-099AN","EPOCH":"2026-07-15T02:19:02.177472","CLASSIFICATION_TYPE":"U","MEAN_MOTION":15.23114243,"ECCENTRICITY":0.00313521,"INCLINATION":97.3948,"RA_OF_ASC_NODE":247.3278,"ARG_OF_PERICENTER":202.4031,"MEAN_ANOMALY":157.5838,"EPHEMERIS_TYPE":0,"NORAD_CAT_ID":43794,"ELEMENT_SET_NO":999,"REV_AT_EPOCH":41728,"BSTAR":0.0001485969,"MEAN_MOTION_DOT":0.0000348,"MEAN_MOTION_DDOT":0},{"OBJECT_NAME":"HAWK-C","OBJECT_ID":"2018-099AT","EPOCH":"2026-07-15T22:28:36.281856","CLASSIFICATION_TYPE":"U","MEAN_MOTION":15.28497622,"ECCENTRICITY":0.00403811,"INCLINATION":97.3872,"RA_OF_ASC_NODE":249.8562,"ARG_OF_PERICENTER":181.1971,"MEAN_ANOMALY":178.9179,"EPHEMERIS_TYPE":0,"NORAD_CAT_ID":43799,"ELEMENT_SET_NO":999,"REV_AT_EPOCH":41830,"BSTAR":0.0001693218,"MEAN_MOTION_DOT":0.00004732,"MEAN_MOTION_DDOT":0},{"OBJECT_NAME":"HAWK-2C","OBJECT_ID":"2021-006CT","EPOCH":"2026-07-15T16:59:41.866944","CLASSIFICATION_TYPE":"U","MEAN_MOTION":15.34993459,"ECCENTRICITY":0.00086605,"INCLINATION":97.2264,"RA_OF_ASC_NODE":240.4527,"ARG_OF_PERICENTER":99.2843,"MEAN_ANOMALY":260.938,"EPHEMERIS_TYPE":0,"NORAD_CAT_ID":47502,"ELEMENT_SET_NO":999,"REV_AT_EPOCH":30387,"BSTAR":0.00011633976,"MEAN_MOTION_DOT":0.00003875,"MEAN_MOTION_DDOT":0},{"OBJECT_NAME":"HAWK-2A","OBJECT_ID":"2021-006CW","EPOCH":"2026-07-15T20:10:37.886592","CLASSIFICATION_TYPE":"U","MEAN_MOTION":15.35014526,"ECCENTRICITY":0.00082102,"INCLINATION":97.2304,"RA_OF_ASC_NODE":241.2772,"ARG_OF_PERICENTER":102.4445,"MEAN_ANOMALY":257.7718,"EPHEMERIS_TYPE":0,"NORAD_CAT_ID":47505,"ELEMENT_SET_NO":999,"REV_AT_EPOCH":30389,"BSTAR":0.00014858738,"MEAN_MOTION_DOT":0.00004973,"MEAN_MOTION_DDOT":0},{"OBJECT_NAME":"HAWK-2B","OBJECT_ID":"2021-006CZ","EPOCH":"2026-07-15T12:11:54.646368","CLASSIFICATION_TYPE":"U","MEAN_MOTION":15.3513941,"ECCENTRICITY":0.0008754,"INCLINATION":97.2176,"RA_OF_ASC_NODE":239.2384,"ARG_OF_PERICENTER":101.665,"MEAN_ANOMALY":258.5577,"EPHEMERIS_TYPE":0,"NORAD_CAT_ID":47508,"ELEMENT_SET_NO":999,"REV_AT_EPOCH":30384,"BSTAR":0.00013402,"MEAN_MOTION_DOT":0.00004497,"MEAN_MOTION_DDOT":0},{"OBJECT_NAME":"HAWK-3B","OBJECT_ID":"2021-059BE","EPOCH":"2026-07-15T13:06:01.361376","CLASSIFICATION_TYPE":"U","MEAN_MOTION":15.71890222,"ECCENTRICITY":0.0004548,"INCLINATION":97.6631,"RA_OF_ASC_NODE":35.9858,"ARG_OF_PERICENTER":196.9727,"MEAN_ANOMALY":163.1384,"EPHEMERIS_TYPE":0,"NORAD_CAT_ID":48931,"ELEMENT_SET_NO":999,"REV_AT_EPOCH":28230,"BSTAR":0.0002611788,"MEAN_MOTION_DOT":0.00033868,"MEAN_MOTION_DDOT":0},{"OBJECT_NAME":"HAWK-3C","OBJECT_ID":"2021-059BX","EPOCH":"2026-07-15T20:43:55.011360","CLASSIFICATION_TYPE":"U","MEAN_MOTION":15.719085,"ECCENTRICITY":0.00047093,"INCLINATION":97.6745,"RA_OF_ASC_NODE":42.0695,"ARG_OF_PERICENTER":196.1704,"MEAN_ANOMALY":163.9409,"EPHEMERIS_TYPE":0,"NORAD_CAT_ID":48948,"ELEMENT_SET_NO":999,"REV_AT_EPOCH":28235,"BSTAR":0.00025811441,"MEAN_MOTION_DOT":0.00033494,"MEAN_MOTION_DDOT":0},{"OBJECT_NAME":"HAWK-3A","OBJECT_ID":"2021-059CG","EPOCH":"2026-07-15T19:12:05.107104","CLASSIFICATION_TYPE":"U","MEAN_MOTION":15.71906504,"ECCENTRICITY":0.00046569,"INCLINATION":97.669,"RA_OF_ASC_NODE":39.1813,"ARG_OF_PERICENTER":198.809,"MEAN_ANOMALY":161.3001,"EPHEMERIS_TYPE":0,"NORAD_CAT_ID":48957,"ELEMENT_SET_NO":999,"REV_AT_EPOCH":28234,"BSTAR":0.00026313311,"MEAN_MOTION_DOT":0.00034148,"MEAN_MOTION_DDOT":0},{"OBJECT_NAME":"HAWK-5C","OBJECT_ID":"2022-057Y","EPOCH":"2026-07-15T22:20:40.498656","CLASSIFICATION_TYPE":"U","MEAN_MOTION":15.52341704,"ECCENTRICITY":0.00027307,"INCLINATION":97.6616,"RA_OF_ASC_NODE":358.4771,"ARG_OF_PERICENTER":343.5481,"MEAN_ANOMALY":16.5682,"EPHEMERIS_TYPE":0,"NORAD_CAT_ID":52754,"ELEMENT_SET_NO":999,"REV_AT_EPOCH":23080,"BSTAR":0.00019005535,"MEAN_MOTION_DOT":0.00011472,"MEAN_MOTION_DDOT":0},{"OBJECT_NAME":"HAWK-5B","OBJECT_ID":"2022-057AA","EPOCH":"2026-07-15T22:20:24.731520","CLASSIFICATION_TYPE":"U","MEAN_MOTION":15.52338181,"ECCENTRICITY":0.00034034,"INCLINATION":97.6629,"RA_OF_ASC_NODE":356.8306,"ARG_OF_PERICENTER":329.0972,"MEAN_ANOMALY":31.0079,"EPHEMERIS_TYPE":0,"NORAD_CAT_ID":52756,"ELEMENT_SET_NO":999,"REV_AT_EPOCH":23080,"BSTAR":0.00018340212,"MEAN_MOTION_DOT":0.00011066,"MEAN_MOTION_DDOT":0},{"OBJECT_NAME":"HAWK-5A","OBJECT_ID":"2022-057AB","EPOCH":"2026-07-15T22:20:07.653696","CLASSIFICATION_TYPE":"U","MEAN_MOTION":15.5234046,"ECCENTRICITY":0.00032704,"INCLINATION":97.6624,"RA_OF_ASC_NODE":357.6608,"ARG_OF_PERICENTER":334.7696,"MEAN_ANOMALY":25.3396,"EPHEMERIS_TYPE":0,"NORAD_CAT_ID":52757,"ELEMENT_SET_NO":999,"REV_AT_EPOCH":23080,"BSTAR":0.00019437095,"MEAN_MOTION_DOT":0.00011735,"MEAN_MOTION_DDOT":0},{"OBJECT_NAME":"HAWK-6B","OBJECT_ID":"2023-011A","EPOCH":"2026-07-15T09:05:11.589504","CLASSIFICATION_TYPE":"U","MEAN_MOTION":15.23154469,"ECCENTRICITY":0.00041894,"INCLINATION":40.4971,"RA_OF_ASC_NODE":187.6092,"ARG_OF_PERICENTER":241.6135,"MEAN_ANOMALY":118.4252,"EPHEMERIS_TYPE":0,"NORAD_CAT_ID":55324,"ELEMENT_SET_NO":999,"REV_AT_EPOCH":19214,"BSTAR":0.00011216102,"MEAN_MOTION_DOT":0.0000251,"MEAN_MOTION_DDOT":0},{"OBJECT_NAME":"HAWK-6C","OBJECT_ID":"2023-011C","EPOCH":"2026-07-15T09:04:17.032224","CLASSIFICATION_TYPE":"U","MEAN_MOTION":15.2315567,"ECCENTRICITY":0.00047142,"INCLINATION":40.4961,"RA_OF_ASC_NODE":184.4487,"ARG_OF_PERICENTER":234.6057,"MEAN_ANOMALY":125.4312,"EPHEMERIS_TYPE":0,"NORAD_CAT_ID":55326,"ELEMENT_SET_NO":999,"REV_AT_EPOCH":19215,"BSTAR":0.00010235967,"MEAN_MOTION_DOT":0.00002273,"MEAN_MOTION_DDOT":0},{"OBJECT_NAME":"HAWK-6A","OBJECT_ID":"2023-011D","EPOCH":"2026-07-15T09:04:20.260128","CLASSIFICATION_TYPE":"U","MEAN_MOTION":15.23155263,"ECCENTRICITY":0.00042849,"INCLINATION":40.4971,"RA_OF_ASC_NODE":186.0753,"ARG_OF_PERICENTER":231.8799,"MEAN_ANOMALY":128.1625,"EPHEMERIS_TYPE":0,"NORAD_CAT_ID":55327,"ELEMENT_SET_NO":999,"REV_AT_EPOCH":19215,"BSTAR":0.00010689843,"MEAN_MOTION_DOT":0.00002383,"MEAN_MOTION_DDOT":0},{"OBJECT_NAME":"HAWK-7A","OBJECT_ID":"2023-054P","EPOCH":"2026-07-15T22:25:05.469312","CLASSIFICATION_TYPE":"U","MEAN_MOTION":15.27637086,"ECCENTRICITY":0.00013278,"INCLINATION":97.2661,"RA_OF_ASC_NODE":83.5406,"ARG_OF_PERICENTER":329.2546,"MEAN_ANOMALY":30.8616,"EPHEMERIS_TYPE":0,"NORAD_CAT_ID":56191,"ELEMENT_SET_NO":999,"REV_AT_EPOCH":18141,"BSTAR":0.00011613162,"MEAN_MOTION_DOT":0.00003065,"MEAN_MOTION_DDOT":0}]}
